start=new Date('2022-11-21T00:00:00.000Z').valueOf();
sats=[{"RA_OF_ASC_NODE":"95.7854","EPHEMERIS_TYPE":"0","ARG_OF_PERICENTER":"100.0552","OBJECT_ID":"2020-025AJ","FILE":"3665715","COUNTRY_CODE":"US","ECCENTRICITY":"0.00012730","REV_AT_EPOCH":"14375","TIME_SYSTEM":"UTC","CENTER_NAME":"EARTH","PERIOD":"95.592","SEMIMAJOR_AXIS":"6925.337","OBJECT_NAME":"STARLINK-1355","MEAN_MOTION_DDOT":"0.0000000000000","EPOCH":"2022-11-20T18:01:37.254432","MEAN_MOTION_DOT":"0.00002428","MEAN_ELEMENT_THEORY":"SGP4","OBJECT_TYPE":"PAYLOAD","GP_ID":"218357374","TLE_LINE1":"1 45563U 20025AJ  22324.75112563  .00002428  00000-0  18180-3 0  9992","CLASSIFICATION_TYPE":"U","PERIAPSIS":"546.320","MEAN_ANOMALY":"260.0581","RCS_SIZE":"LARGE","DECAY_DATE":null,"MEAN_MOTION":"15.06403890","SITE":"AFETR","TLE_LINE2":"2 45563  53.0556  95.7854 0001273 100.0552 260.0581 15.06403890143751","ELEMENT_SET_NO":"999","BSTAR":"0.00018180000000","NORAD_CAT_ID":"45563","LAUNCH_DATE":"2020-04-22","REF_FRAME":"TEME","APOAPSIS":"548.083","INCLINATION":"53.0556"},{"RA_OF_ASC_NODE":"95.8218","EPHEMERIS_TYPE":"0","ARG_OF_PERICENTER":"85.9113","OBJECT_ID":"2020-025AK","FILE":"3665715","COUNTRY_CODE":"US","ECCENTRICITY":"0.00012890","REV_AT_EPOCH":"14375","TIME_SYSTEM":"UTC","CENTER_NAME":"EARTH","PERIOD":"95.592","MEAN_MOTION_DOT":"0.00000549","MEAN_MOTION_DDOT":"0.0000000000000","EPOCH":"2022-11-20T17:56:19.317984","SEMIMAJOR_AXIS":"6925.366","OBJECT_NAME":"STARLINK-1356","MEAN_ELEMENT_THEORY":"SGP4","OBJECT_TYPE":"PAYLOAD","GP_ID":"218358623","CLASSIFICATION_TYPE":"U","TLE_LINE1":"1 45564U 20025AK  22324.74744581  .00000549  00000-0  55758-4 0  9998","PERIAPSIS":"546.338","RCS_SIZE":"LARGE","MEAN_ANOMALY":"274.2023","DECAY_DATE":null,"SITE":"AFETR","MEAN_MOTION":"15.06394339","BSTAR":"0.00005575800000","ELEMENT_SET_NO":"999","TLE_LINE2":"2 45564  53.0565  95.8218 0001289  85.9113 274.2023 15.06394339143753","NORAD_CAT_ID":"45564","LAUNCH_DATE":"2020-04-22","REF_FRAME":"TEME","APOAPSIS":"548.124","INCLINATION":"53.0565"},{"PERIOD":"95.593","EPOCH":"2022-11-20T16:10:09.774336","MEAN_MOTION_DDOT":"0.0000000000000","MEAN_MOTION_DOT":"0.00000574","SEMIMAJOR_AXIS":"6925.369","OBJECT_NAME":"STARLINK-1357","CENTER_NAME":"EARTH","OBJECT_TYPE":"PAYLOAD","MEAN_ELEMENT_THEORY":"SGP4","EPHEMERIS_TYPE":"0","ARG_OF_PERICENTER":"87.0357","OBJECT_ID":"2020-025AL","RA_OF_ASC_NODE":"96.1465","REV_AT_EPOCH":"14374","ECCENTRICITY":"0.00012050","TIME_SYSTEM":"UTC","FILE":"3665715","COUNTRY_CODE":"US","NORAD_CAT_ID":"45565","LAUNCH_DATE":"2020-04-22","BSTAR":"0.00005746100000","ELEMENT_SET_NO":"999","TLE_LINE2":"2 45565  53.0557  96.1465 0001205  87.0357 273.0770 15.06393393143748","INCLINATION":"53.0557","REF_FRAME":"TEME","APOAPSIS":"548.068","PERIAPSIS":"546.399","GP_ID":"218358374","TLE_LINE1":"1 45565U 20025AL  22324.67372424  .00000574  00000-0  57461-4 0  9995","CLASSIFICATION_TYPE":"U","DECAY_DATE":null,"SITE":"AFETR","MEAN_MOTION":"15.06393393","RCS_SIZE":"LARGE","MEAN_ANOMALY":"273.0770"},{"NORAD_CAT_ID":"45566","LAUNCH_DATE":"2020-04-22","BSTAR":"0.00008994300000","ELEMENT_SET_NO":"999","TLE_LINE2":"2 45566  53.0539  95.7861 0001184  92.0607 268.0518 15.06398012143752","INCLINATION":"53.0539","REF_FRAME":"TEME","APOAPSIS":"548.040","PERIAPSIS":"546.400","GP_ID":"218357124","TLE_LINE1":"1 45566U 20025AM  22324.75480435  .00001059  00000-0  89943-4 0  9996","CLASSIFICATION_TYPE":"U","DECAY_DATE":null,"SITE":"AFETR","MEAN_MOTION":"15.06398012","RCS_SIZE":"LARGE","MEAN_ANOMALY":"268.0518","PERIOD":"95.592","MEAN_MOTION_DDOT":"0.0000000000000","MEAN_MOTION_DOT":"0.00001059","EPOCH":"2022-11-20T18:06:55.095840","SEMIMAJOR_AXIS":"6925.355","OBJECT_NAME":"STARLINK-1358","CENTER_NAME":"EARTH","OBJECT_TYPE":"PAYLOAD","MEAN_ELEMENT_THEORY":"SGP4","EPHEMERIS_TYPE":"0","ARG_OF_PERICENTER":"92.0607","OBJECT_ID":"2020-025AM","RA_OF_ASC_NODE":"95.7861","ECCENTRICITY":"0.00011840","REV_AT_EPOCH":"14375","TIME_SYSTEM":"UTC","FILE":"3665715","COUNTRY_CODE":"US"},{"MEAN_MOTION":"15.06392901","SITE":"AFETR","DECAY_DATE":null,"MEAN_ANOMALY":"262.7133","RCS_SIZE":"LARGE","PERIAPSIS":"546.280","TLE_LINE1":"1 45567U 20025AN  22324.76587448 -.00001440  00000-0 -77843-4 0  9992","CLASSIFICATION_TYPE":"U","GP_ID":"218357873","INCLINATION":"53.0553","APOAPSIS":"548.190","REF_FRAME":"TEME","LAUNCH_DATE":"2020-04-22","NORAD_CAT_ID":"45567","TLE_LINE2":"2 45567  53.0553  95.7194 0001379  97.4012 262.7133 15.06392901143769","ELEMENT_SET_NO":"999","BSTAR":"-0.00007784300000","TIME_SYSTEM":"UTC","ECCENTRICITY":"0.00013790","REV_AT_EPOCH":"14376","COUNTRY_CODE":"US","FILE":"3665715","OBJECT_ID":"2020-025AN","ARG_OF_PERICENTER":"97.4012","EPHEMERIS_TYPE":"0","RA_OF_ASC_NODE":"95.7194","OBJECT_TYPE":"PAYLOAD","MEAN_ELEMENT_THEORY":"SGP4","OBJECT_NAME":"STARLINK-1361","SEMIMAJOR_AXIS":"6925.370","EPOCH":"2022-11-20T18:22:51.555072","MEAN_MOTION_DDOT":"0.0000000000000","MEAN_MOTION_DOT":"-0.00001440","PERIOD":"95.593","CENTER_NAME":"EARTH"},{"INCLINATION":"53.0560","REF_FRAME":"TEME","APOAPSIS":"548.318","NORAD_CAT_ID":"45568","LAUNCH_DATE":"2020-04-22","BSTAR":"0.00012607000000","ELEMENT_SET_NO":"999","TLE_LINE2":"2 45568  53.0560  95.9167 0001599  53.5306 306.5830 15.06401028143754","DECAY_DATE":null,"SITE":"AFETR","MEAN_MOTION":"15.06401028","RCS_SIZE":"LARGE","MEAN_ANOMALY":"306.5830","PERIAPSIS":"546.103","GP_ID":"218358124","TLE_LINE1":"1 45568U 20025AP  22324.78064121  .00001597  00000-0  12607-3 0  9990","CLASSIFICATION_TYPE":"U","OBJECT_TYPE":"PAYLOAD","MEAN_ELEMENT_THEORY":"SGP4","PERIOD":"95.592","MEAN_MOTION_DDOT":"0.0000000000000","EPOCH":"2022-11-20T18:44:07.400544","MEAN_MOTION_DOT":"0.00001597","SEMIMAJOR_AXIS":"6925.345","OBJECT_NAME":"STARLINK-1363","CENTER_NAME":"EARTH","REV_AT_EPOCH":"14375","ECCENTRICITY":"0.00015990","TIME_SYSTEM":"UTC","FILE":"3665715","COUNTRY_CODE":"US","EPHEMERIS_TYPE":"0","ARG_OF_PERICENTER":"53.5306","OBJECT_ID":"2020-025AP","RA_OF_ASC_NODE":"95.9167"},{"RCS_SIZE":"LARGE","MEAN_ANOMALY":"303.3792","DECAY_DATE":null,"SITE":"AFETR","MEAN_MOTION":"15.06385104","GP_ID":"218358874","TLE_LINE1":"1 45569U 20025AQ  22324.83590805 -.00001370  00000-0 -73126-4 0  9995","CLASSIFICATION_TYPE":"U","PERIAPSIS":"546.145","REF_FRAME":"TEME","APOAPSIS":"548.374","INCLINATION":"53.0562","BSTAR":"-0.00007312600000","ELEMENT_SET_NO":"999","TLE_LINE2":"2 45569  53.0562  95.4235 0001609  56.7351 303.3792 15.06385104143764","NORAD_CAT_ID":"45569","LAUNCH_DATE":"2020-04-22","FILE":"3665715","COUNTRY_CODE":"US","REV_AT_EPOCH":"14376","ECCENTRICITY":"0.00016090","TIME_SYSTEM":"UTC","RA_OF_ASC_NODE":"95.4235","EPHEMERIS_TYPE":"0","ARG_OF_PERICENTER":"56.7351","OBJECT_ID":"2020-025AQ","MEAN_ELEMENT_THEORY":"SGP4","OBJECT_TYPE":"PAYLOAD","CENTER_NAME":"EARTH","PERIOD":"95.593","MEAN_MOTION_DDOT":"0.0000000000000","MEAN_MOTION_DOT":"-0.00001370","EPOCH":"2022-11-20T20:03:42.455520","SEMIMAJOR_AXIS":"6925.394","OBJECT_NAME":"STARLINK-1366"},{"CENTER_NAME":"EARTH","OBJECT_NAME":"STARLINK-1376","SEMIMAJOR_AXIS":"6925.362","MEAN_MOTION_DDOT":"0.0000000000000","EPOCH":"2022-11-20T19:53:04.847712","MEAN_MOTION_DOT":"0.00000419","PERIOD":"95.592","MEAN_ELEMENT_THEORY":"SGP4","OBJECT_TYPE":"PAYLOAD","RA_OF_ASC_NODE":"95.4436","OBJECT_ID":"2020-025AR","ARG_OF_PERICENTER":"89.7446","EPHEMERIS_TYPE":"0","COUNTRY_CODE":"US","FILE":"3665715","TIME_SYSTEM":"UTC","REV_AT_EPOCH":"14376","ECCENTRICITY":"0.00012290","TLE_LINE2":"2 45570  53.0556  95.4436 0001229  89.7446 270.3684 15.06395474143765","ELEMENT_SET_NO":"999","BSTAR":"0.00004703200000","LAUNCH_DATE":"2020-04-22","NORAD_CAT_ID":"45570","APOAPSIS":"548.079","REF_FRAME":"TEME","INCLINATION":"53.0556","TLE_LINE1":"1 45570U 20025AR  22324.82852833  .00000419  00000-0  47032-4 0  9996","CLASSIFICATION_TYPE":"U","GP_ID":"218357624","PERIAPSIS":"546.376","MEAN_ANOMALY":"270.3684","RCS_SIZE":"LARGE","MEAN_MOTION":"15.06395474","SITE":"AFETR","DECAY_DATE":null},{"GP_ID":"218357375","CLASSIFICATION_TYPE":"U","TLE_LINE1":"1 45571U 20025AS  22324.84419135  .00001095  00000-0  92391-4 0  9992","PERIAPSIS":"546.442","MEAN_ANOMALY":"275.8774","RCS_SIZE":"LARGE","DECAY_DATE":null,"MEAN_MOTION":"15.06396816","SITE":"AFETR","TLE_LINE2":"2 45571  53.0553  85.3673 0001128  84.2344 275.8774 15.06396816143928","ELEMENT_SET_NO":"999","BSTAR":"0.00009239100000","NORAD_CAT_ID":"45571","LAUNCH_DATE":"2020-04-22","REF_FRAME":"TEME","APOAPSIS":"548.004","INCLINATION":"53.0553","RA_OF_ASC_NODE":"85.3673","EPHEMERIS_TYPE":"0","ARG_OF_PERICENTER":"84.2344","OBJECT_ID":"2020-025AS","FILE":"3665715","COUNTRY_CODE":"US","REV_AT_EPOCH":"14392","ECCENTRICITY":"0.00011280","TIME_SYSTEM":"UTC","CENTER_NAME":"EARTH","PERIOD":"95.592","SEMIMAJOR_AXIS":"6925.358","OBJECT_NAME":"STARLINK-1261","MEAN_MOTION_DDOT":"0.0000000000000","MEAN_MOTION_DOT":"0.00001095","EPOCH":"2022-11-20T20:15:38.132640","MEAN_ELEMENT_THEORY":"SGP4","OBJECT_TYPE":"PAYLOAD"},{"RCS_SIZE":"LARGE","MEAN_ANOMALY":"275.3121","DECAY_DATE":null,"SITE":"AFETR","MEAN_MOTION":"15.06400887","GP_ID":"218358624","TLE_LINE1":"1 45572U 20025AT  22324.83680918 -.00000912  00000-0 -42320-4 0  9997","CLASSIFICATION_TYPE":"U","PERIAPSIS":"546.295","REF_FRAME":"TEME","APOAPSIS":"548.126","INCLINATION":"53.0552","BSTAR":"-0.00004232000000","ELEMENT_SET_NO":"999","TLE_LINE2":"2 45572  53.0552  85.4144 0001322  84.8018 275.3121 15.06400887143916","NORAD_CAT_ID":"45572","LAUNCH_DATE":"2020-04-22","FILE":"3665715","COUNTRY_CODE":"US","ECCENTRICITY":"0.00013220","REV_AT_EPOCH":"14391","TIME_SYSTEM":"UTC","RA_OF_ASC_NODE":"85.4144","EPHEMERIS_TYPE":"0","ARG_OF_PERICENTER":"84.8018","OBJECT_ID":"2020-025AT","MEAN_ELEMENT_THEORY":"SGP4","OBJECT_TYPE":"PAYLOAD","CENTER_NAME":"EARTH","PERIOD":"95.592","MEAN_MOTION_DDOT":"0.0000000000000","MEAN_MOTION_DOT":"-0.00000912","EPOCH":"2022-11-20T20:05:00.313152","SEMIMAJOR_AXIS":"6925.346","OBJECT_NAME":"STARLINK-1320"}];
